1 40534U 15013A   21003.23348987 -.00000013  00000-0  00000+0 0  9990
2 40534  54.0747 286.6325 0055057  11.4752 348.6977  2.00556313 42329
1 40534U 15013A   21003.23348987 -.00000013  00000-0  00000-0 0  9991
2 40534  54.0747 286.6325 0055057  11.4752 348.6977  2.00556313 41890
1 40534U 15013A   21004.72927379 -.00000022  00000-0  00000-0 0  9994
2 40534  54.0735 286.5707 0055120  11.5258 348.6448  2.00556197 41920
1 40534U 15013A   21008.71803542 -.00000033  00000-0  00000+0 0  9993
2 40534  54.0706 286.4059 0055300  11.6868 348.4770  2.00555856 42439
1 40534U 15013A   21008.71803542 -.00000033  00000-0  00000-0 0  9994
2 40534  54.0706 286.4059 0055300  11.6868 348.4770  2.00555856 42002
1 40534U 15013A   21013.20542952 -.00000020  00000-0  00000-0 0  9995
2 40534  54.0659 286.2206 0055507  11.9244 348.2588  2.00555703 42096
1 40534U 15013A   21013.70402615 -.00000021  00000-0  00000-0 0  9992
2 40534  54.0654 286.1999 0055533  11.9591 348.2263  2.00555816 42100
1 40534U 15013A   21016.19702034 -.00000036  00000-0  00000+0 0  9991
2 40534  54.0638 286.0969 0055542  11.9687 348.2203  2.00555547 42581
1 40534U 15013A   21016.19702034 -.00000036  00000-0  00000-0 0  9992
2 40534  54.0638 286.0969 0055542  11.9687 348.2203  2.00555547 42154
1 40534U 15013A   21018.19141079 -.00000047  00000-0  00000-0 0  9992
2 40534  54.0623 286.0145 0055696  12.2583 347.9317  2.00555546 42198
1 40534U 15013A   21019.18860471 -.00000048  00000-0  00000-0 0  9997
2 40534  54.0616 285.9732 0055738  12.3376 347.8517  2.00555533 42218
1 40534U 15013A   21020.18580135 -.00000046  00000-0  00000-0 0  9993
2 40534  54.0609 285.9320 0055772  12.3994 347.7895  2.00555429 42231
1 40534U 15013A   21022.18019683 -.00000031  00000-0  00000-0 0  9994
2 40534  54.0594 285.8496 0055854  12.5504 347.6409  2.00555331 42273
1 40534U 15013A   21022.67879014 -.00000025  00000-0  00000-0 0  9993
2 40534  54.0589 285.8290 0055856  12.3836 347.8069  2.00555376 42281
1 40534U 15013A   21023.17739245 -.00000020  00000-0  00000-0 0  9995
2 40534  54.0586 285.8084 0055885  12.4070 347.7851  2.00555264 42297
1 40534U 15013A   21023.67599293 -.00000014  00000-0  00000-0 0  9990
2 40534  54.0582 285.7879 0055905  12.4297 347.7642  2.00555241 42303
1 40534U 15013A   21027.16620405  .00000015  00000-0  00000+0 0  9997
2 40534  54.0556 285.6437 0056018  12.5023 347.7081  2.00555025 42809
1 40534U 15013A   21027.16620405  .00000015  00000-0  00000-0 0  9998
2 40534  54.0556 285.6437 0056018  12.5023 347.7081  2.00555025 42371
1 40534U 15013A   21027.16620574  .00000015  00000-0  00000-0 0  9995
2 40534  54.0558 285.6436 0056032  12.5522 347.6587  2.00554995 42377
1 40534U 15013A   21028.16340874  .00000018  00000-0  00000-0 0  9991
2 40534  54.0551 285.6024 0056063  12.5866 347.6284  2.00554928 42390
1 40534U 15013A   21032.15220207  .00000003  00000-0  00000+0 0  9995
2 40534  54.0518 285.4375 0056216  12.7650 347.4488  2.00554583 42901
1 40534U 15013A   21032.15220207  .00000003  00000-0  00000-0 0  9996
2 40534  54.0518 285.4375 0056216  12.7650 347.4488  2.00554583 42473
1 40534U 15013A   21033.14939522 -.00000002  00000-0  00000-0 0  9993
2 40534  54.0511 285.3962 0056251  12.7941 347.4156  2.00554528 42492
1 40534U 15013A   21036.14098896 -.00000005  00000-0  00000+0 0  9998
2 40534  54.0488 285.2724 0056360  12.9322 347.2706  2.00554237 42986
1 40534U 15013A   21036.14098896 -.00000005  00000-0  00000-0 0  9999
2 40534  54.0488 285.2724 0056360  12.9322 347.2706  2.00554237 42559
1 40534U 15013A   21037.13819303 -.00000001  00000-0  00000-0 0  9999
2 40534  54.0481 285.2312 0056399  13.0244 347.1802  2.00554172 42578
1 40534U 15013A   21038.13539712  .00000004  00000-0  00000-0 0  9995
2 40534  54.0474 285.1900 0056426  13.0537 347.1537  2.00554151 42592
1 40534U 15013A   21039.13260558  .00000007  00000-0  00000-0 0  9998
2 40534  54.0466 285.1487 0056450  13.0736 347.1372  2.00554029 42615
1 40534U 15013A   21039.63120966  .00000008  00000-0  00000-0 0  9992
2 40534  54.0463 285.1281 0056471  13.1096 347.1033  2.00553993 42621
1 40534U 15013A   21040.62841831  .00000007  00000-0  00000-0 0  9993
2 40534  54.0456 285.0868 0056490  13.1164 347.0993  2.00553866 42645
1 40534U 15013A   21042.12421933  .00000000  00000-0  00000-0 0  9990
2 40534  54.0444 285.0250 0056536  13.1984 347.0200  2.00554022 42677
1 40534U 15013A   21045.11582256 -.00000021  00000-0  00000+0 0  9991
2 40534  54.0423 284.9012 0056641  13.3328 346.8813  2.00553877 43168
1 40534U 15013A   21045.11582256 -.00000021  00000-0  00000-0 0  9992
2 40534  54.0423 284.9012 0056641  13.3328 346.8813  2.00553877 42730
1 40534U 15013A   21046.11302216 -.00000024  00000-0  00000-0 0  9992
2 40534  54.0416 284.8600 0056655  13.3691 346.8421  2.00553830 42758
1 40534U 15013A   21048.10742430 -.00000019  00000-0  00000-0 0  9993
2 40534  54.0402 284.7776 0056695  13.4474 346.7596  2.00553736 42791
1 40534U 15013A   21049.10463132 -.00000011  00000-0  00000-0 0  9995
2 40534  54.0395 284.7364 0056716  13.5268 346.6802  2.00553593 42814
